[{"OBJECT_NAME":"STARLINK-2603","OBJECT_ID":"2021-038Y","EPOCH":"2026-03-10T00:00:02.999808","MEAN_MOTION":15.30181212,"ECCENTRICITY":0.00014615,"INCLINATION":53.1589,"RA_OF_ASC_NODE":346.3559,"ARG_OF_PERICENTER":79.8952,"MEAN_ANOMALY":186.4167,"EPHEMERIS_TYPE":0,"CLASSIFICATION_TYPE":"U","NORAD_CAT_ID":48375,"ELEMENT_SET_NO":999,"REV_AT_EPOCH":571,"BSTAR":8.0637876e-5,"MEAN_MOTION_DOT":2.028e-5,"MEAN_MOTION_DDOT":0},{"OBJECT_NAME":"OBJECT BC","OBJECT_ID":"2025-313BC","EPOCH":"2026-03-09T04:33:08.504064","MEAN_MOTION":15.29126358,"ECCENTRICITY":0.00084789,"INCLINATION":97.3985,"RA_OF_ASC_NODE":144.811,"ARG_OF_PERICENTER":328.9209,"MEAN_ANOMALY":31.1528,"EPHEMERIS_TYPE":0,"CLASSIFICATION_TYPE":"U","NORAD_CAT_ID":67298,"ELEMENT_SET_NO":999,"REV_AT_EPOCH":789,"BSTAR":0.0026410397,"MEAN_MOTION_DOT":0.00075331,"MEAN_MOTION_DDOT":0}]
